start=new Date('2023-04-20T00:00:00.000Z').valueOf();
sats=[{"CENTER_NAME":"EARTH","ELEMENT_SET_NO":"999","MEAN_ANOMALY":"282.2585","SEMIMAJOR_AXIS":"6925.370","NORAD_CAT_ID":"48305","GP_ID":"230394508","TLE_LINE1":"1 48305U 21036AF  23109.79510757 -.00012345  00000-0 -81147-3 0  9999","OBJECT_TYPE":"PAYLOAD","APOAPSIS":"547.997","LAUNCH_DATE":"2021-04-29","MEAN_MOTION_DDOT":"0.0000000000000","MEAN_MOTION_DOT":"-0.00012345","TLE_LINE2":"2 48305  53.0537 147.2101 0001100  77.8527 282.2585 15.06392953109172","PERIAPSIS":"546.473","RCS_SIZE":"LARGE","EPHEMERIS_TYPE":"0","MEAN_MOTION":"15.06392953","SITE":"AFETR","TIME_SYSTEM":"UTC","ECCENTRICITY":"0.00011000","MEAN_ELEMENT_THEORY":"SGP4","REV_AT_EPOCH":"10917","INCLINATION":"53.0537","DECAY_DATE":null,"CLASSIFICATION_TYPE":"U","OBJECT_ID":"2021-036AF","PERIOD":"95.593","OBJECT_NAME":"STARLINK-2519","BSTAR":"-0.00081147000000","REF_FRAME":"TEME","COUNTRY_CODE":"US","ARG_OF_PERICENTER":"77.8527","RA_OF_ASC_NODE":"147.2101","EPOCH":"2023-04-19T19:04:57.294048","FILE":"3890520"},{"OBJECT_NAME":"STARLINK-2523","BSTAR":"0.00044350000000","DECAY_DATE":null,"INCLINATION":"53.0519","OBJECT_ID":"2021-036AG","CLASSIFICATION_TYPE":"U","PERIOD":"95.592","TIME_SYSTEM":"UTC","ECCENTRICITY":"0.00020350","MEAN_ELEMENT_THEORY":"SGP4","REV_AT_EPOCH":"10917","EPOCH":"2023-04-19T19:00:59.691456","FILE":"3890520","RA_OF_ASC_NODE":"147.2385","REF_FRAME":"TEME","COUNTRY_CODE":"US","ARG_OF_PERICENTER":"86.9334","GP_ID":"230393256","TLE_LINE1":"1 48306U 21036AG  23109.79235754  .00006332  00000-0  44350-3 0  9993","OBJECT_TYPE":"PAYLOAD","NORAD_CAT_ID":"48306","ELEMENT_SET_NO":"999","MEAN_ANOMALY":"273.1888","SEMIMAJOR_AXIS":"6925.325","CENTER_NAME":"EARTH","MEAN_MOTION":"15.06407629","SITE":"AFETR","PERIAPSIS":"545.781","RCS_SIZE":"LARGE","EPHEMERIS_TYPE":"0","MEAN_MOTION_DDOT":"0.0000000000000","TLE_LINE2":"2 48306  53.0519 147.2385 0002035  86.9334 273.1888 15.06407629109174","MEAN_MOTION_DOT":"0.00006332","APOAPSIS":"548.599","LAUNCH_DATE":"2021-04-29"},{"TIME_SYSTEM":"UTC","ECCENTRICITY":"0.00015420","MEAN_ELEMENT_THEORY":"SGP4","REV_AT_EPOCH":"10914","INCLINATION":"53.0510","DECAY_DATE":null,"OBJECT_ID":"2021-036AH","CLASSIFICATION_TYPE":"U","PERIOD":"95.590","OBJECT_NAME":"STARLINK-2528","BSTAR":"0.00118840000000","REF_FRAME":"TEME","ARG_OF_PERICENTER":"81.5714","COUNTRY_CODE":"US","RA_OF_ASC_NODE":"148.1445","EPOCH":"2023-04-19T14:09:03.489408","FILE":"3890520","CENTER_NAME":"EARTH","ELEMENT_SET_NO":"999","MEAN_ANOMALY":"278.5450","SEMIMAJOR_AXIS":"6925.223","NORAD_CAT_ID":"48307","TLE_LINE1":"1 48307U 21036AH  23109.58962372  .00017484  00000-0  11884-2 0  9999","GP_ID":"230393006","OBJECT_TYPE":"PAYLOAD","APOAPSIS":"548.156","LAUNCH_DATE":"2021-04-29","MEAN_MOTION_DDOT":"0.0000000000000","TLE_LINE2":"2 48307  53.0510 148.1445 0001542  81.5714 278.5450 15.06440947109149","MEAN_MOTION_DOT":"0.00017484","PERIAPSIS":"546.020","EPHEMERIS_TYPE":"0","RCS_SIZE":"LARGE","MEAN_MOTION":"15.06440947","SITE":"AFETR"},{"TLE_LINE1":"1 48308U 21036AJ  23109.38690887  .00019748  00000-0  13395-2 0  9991","GP_ID":"230365289","OBJECT_TYPE":"PAYLOAD","NORAD_CAT_ID":"48308","SEMIMAJOR_AXIS":"6925.228","ELEMENT_SET_NO":"999","MEAN_ANOMALY":"296.9851","CENTER_NAME":"EARTH","SITE":"AFETR","MEAN_MOTION":"15.06439315","PERIAPSIS":"545.924","EPHEMERIS_TYPE":"0","RCS_SIZE":"LARGE","MEAN_MOTION_DOT":"0.00019748","TLE_LINE2":"2 48308  53.0521 149.0546 0001688  63.1310 296.9851 15.06439315109116","MEAN_MOTION_DDOT":"0.0000000000000","LAUNCH_DATE":"2021-04-29","APOAPSIS":"548.262","BSTAR":"0.00133950000000","OBJECT_NAME":"STARLINK-2532","OBJECT_ID":"2021-036AJ","CLASSIFICATION_TYPE":"U","PERIOD":"95.590","INCLINATION":"53.0521","DECAY_DATE":null,"REV_AT_EPOCH":"10911","TIME_SYSTEM":"UTC","ECCENTRICITY":"0.00016880","MEAN_ELEMENT_THEORY":"SGP4","EPOCH":"2023-04-19T09:17:08.926368","FILE":"3890383","RA_OF_ASC_NODE":"149.0546","COUNTRY_CODE":"US","ARG_OF_PERICENTER":"63.1310","REF_FRAME":"TEME"},{"RA_OF_ASC_NODE":"148.1775","COUNTRY_CODE":"US","ARG_OF_PERICENTER":"79.4976","REF_FRAME":"TEME","FILE":"3890520","EPOCH":"2023-04-19T13:58:27.114528","PERIOD":"95.589","CLASSIFICATION_TYPE":"U","OBJECT_ID":"2021-036AK","INCLINATION":"53.0509","DECAY_DATE":null,"REV_AT_EPOCH":"10914","MEAN_ELEMENT_THEORY":"SGP4","TIME_SYSTEM":"UTC","ECCENTRICITY":"0.00015470","BSTAR":"0.00123730000000","OBJECT_NAME":"STARLINK-2517","MEAN_MOTION_DOT":"0.00018219","TLE_LINE2":"2 48309  53.0509 148.1775 0001547  79.4976 280.6187 15.06446166109146","MEAN_MOTION_DDOT":"0.0000000000000","LAUNCH_DATE":"2021-04-29","APOAPSIS":"548.143","SITE":"AFETR","MEAN_MOTION":"15.06446166","RCS_SIZE":"LARGE","EPHEMERIS_TYPE":"0","PERIAPSIS":"546.001","SEMIMAJOR_AXIS":"6925.207","MEAN_ANOMALY":"280.6187","ELEMENT_SET_NO":"999","CENTER_NAME":"EARTH","OBJECT_TYPE":"PAYLOAD","GP_ID":"230394008","TLE_LINE1":"1 48309U 21036AK  23109.58225827  .00018219  00000-0  12373-2 0  9999","NORAD_CAT_ID":"48309"},{"NORAD_CAT_ID":"48310","OBJECT_TYPE":"PAYLOAD","TLE_LINE1":"1 48310U 21036AL  23109.37953535  .00022881  00000-0  15473-2 0  9996","GP_ID":"230371283","CENTER_NAME":"EARTH","SEMIMAJOR_AXIS":"6925.150","MEAN_ANOMALY":"307.2214","ELEMENT_SET_NO":"999","EPHEMERIS_TYPE":"0","RCS_SIZE":"LARGE","PERIAPSIS":"545.966","SITE":"AFETR","MEAN_MOTION":"15.06464652","LAUNCH_DATE":"2021-04-29","APOAPSIS":"548.065","MEAN_MOTION_DOT":"0.00022881","TLE_LINE2":"2 48310  53.0528 149.0858 0001515  52.8913 307.2214 15.06464652109701","MEAN_MOTION_DDOT":"0.0000000000000","BSTAR":"0.00154730000000","OBJECT_NAME":"STARLINK-2536","REV_AT_EPOCH":"10970","MEAN_ELEMENT_THEORY":"SGP4","ECCENTRICITY":"0.00015150","TIME_SYSTEM":"UTC","PERIOD":"95.588","OBJECT_ID":"2021-036AL","CLASSIFICATION_TYPE":"U","DECAY_DATE":null,"INCLINATION":"53.0528","FILE":"3890466","EPOCH":"2023-04-19T09:06:31.854240","ARG_OF_PERICENTER":"52.8913","COUNTRY_CODE":"US","REF_FRAME":"TEME","RA_OF_ASC_NODE":"149.0858"},{"EPOCH":"2023-04-19T20:09:59.973408","FILE":"3890520","RA_OF_ASC_NODE":"147.0260","REF_FRAME":"TEME","COUNTRY_CODE":"US","ARG_OF_PERICENTER":"51.0402","OBJECT_NAME":"STARLINK-2534","BSTAR":"0.00064964000000","DECAY_DATE":null,"INCLINATION":"53.0503","OBJECT_ID":"2021-036AM","CLASSIFICATION_TYPE":"U","PERIOD":"95.590","TIME_SYSTEM":"UTC","ECCENTRICITY":"0.00022650","MEAN_ELEMENT_THEORY":"SGP4","REV_AT_EPOCH":"10918","MEAN_MOTION":"15.06429027","SITE":"AFETR","PERIAPSIS":"545.556","RCS_SIZE":"LARGE","EPHEMERIS_TYPE":"0","MEAN_MOTION_DDOT":"0.0000000000000","MEAN_MOTION_DOT":"0.00009416","TLE_LINE2":"2 48311  53.0503 147.0260 0002265  51.0402 309.0789 15.06429027109183","APOAPSIS":"548.693","LAUNCH_DATE":"2021-04-29","TLE_LINE1":"1 48311U 21036AM  23109.84027747  .00009416  00000-0  64964-3 0  9995","GP_ID":"230393507","OBJECT_TYPE":"PAYLOAD","NORAD_CAT_ID":"48311","ELEMENT_SET_NO":"999","MEAN_ANOMALY":"309.0789","SEMIMAJOR_AXIS":"6925.260","CENTER_NAME":"EARTH"},{"REV_AT_EPOCH":"10918","TIME_SYSTEM":"UTC","ECCENTRICITY":"0.00011150","MEAN_ELEMENT_THEORY":"SGP4","CLASSIFICATION_TYPE":"U","OBJECT_ID":"2021-036AN","PERIOD":"95.592","DECAY_DATE":null,"INCLINATION":"53.0530","BSTAR":"0.00028028000000","OBJECT_NAME":"STARLINK-2061","COUNTRY_CODE":"US","ARG_OF_PERICENTER":"92.8705","REF_FRAME":"TEME","RA_OF_ASC_NODE":"147.0364","EPOCH":"2023-04-19T20:04:41.505600","FILE":"3890520","CENTER_NAME":"EARTH","SEMIMAJOR_AXIS":"6925.322","ELEMENT_SET_NO":"999","MEAN_ANOMALY":"267.2411","NORAD_CAT_ID":"48312","GP_ID":"230393758","TLE_LINE1":"1 48312U 21036AN  23109.83659150  .00003897  00000-0  28028-3 0  9992","OBJECT_TYPE":"PAYLOAD","LAUNCH_DATE":"2021-04-29","APOAPSIS":"547.959","MEAN_MOTION_DOT":"0.00003897","TLE_LINE2":"2 48312  53.0530 147.0364 0001115  92.8705 267.2411 15.06408764109183","MEAN_MOTION_DDOT":"0.0000000000000","PERIAPSIS":"546.415","RCS_SIZE":"LARGE","EPHEMERIS_TYPE":"0","SITE":"AFETR","MEAN_MOTION":"15.06408764"},{"MEAN_ELEMENT_THEORY":"SGP4","ECCENTRICITY":"0.00015810","TIME_SYSTEM":"UTC","REV_AT_EPOCH":"10917","DECAY_DATE":null,"INCLINATION":"53.0517","PERIOD":"95.591","OBJECT_ID":"2021-036AP","CLASSIFICATION_TYPE":"U","OBJECT_NAME":"STARLINK-2541","BSTAR":"0.00001850900000","REF_FRAME":"TEME","ARG_OF_PERICENTER":"77.7401","COUNTRY_CODE":"US","RA_OF_ASC_NODE":"147.0487","FILE":"3890520","EPOCH":"2023-04-19T19:59:22.719840","CENTER_NAME":"EARTH","MEAN_ANOMALY":"282.3765","ELEMENT_SET_NO":"999","SEMIMAJOR_AXIS":"6925.311","NORAD_CAT_ID":"48313","OBJECT_TYPE":"PAYLOAD","GP_ID":"230394509","TLE_LINE1":"1 48313U 21036AP  23109.83290185 -.00000006  00000-0  18509-4 0  9996","APOAPSIS":"548.271","LAUNCH_DATE":"2021-04-29","MEAN_MOTION_DDOT":"0.0000000000000","MEAN_MOTION_DOT":"-0.00000006","TLE_LINE2":"2 48313  53.0517 147.0487 0001581  77.7401 282.3765 15.06412380109175","EPHEMERIS_TYPE":"0","RCS_SIZE":"LARGE","PERIAPSIS":"546.081","MEAN_MOTION":"15.06412380","SITE":"AFETR"},{"MEAN_ELEMENT_THEORY":"SGP4","TIME_SYSTEM":"UTC","ECCENTRICITY":"0.00017460","REV_AT_EPOCH":"10917","DECAY_DATE":null,"INCLINATION":"53.0524","PERIOD":"95.591","CLASSIFICATION_TYPE":"U","OBJECT_ID":"2021-036AQ","OBJECT_NAME":"STARLINK-2549","BSTAR":"0.00046957000000","REF_FRAME":"TEME","ARG_OF_PERICENTER":"86.3709","COUNTRY_CODE":"US","RA_OF_ASC_NODE":"147.0702","FILE":"3890520","EPOCH":"2023-04-19T19:54:04.770432","CENTER_NAME":"EARTH","MEAN_ANOMALY":"273.7480","ELEMENT_SET_NO":"999","SEMIMAJOR_AXIS":"6925.299","NORAD_CAT_ID":"48314","OBJECT_TYPE":"PAYLOAD","TLE_LINE1":"1 48314U 21036AQ  23109.82922188  .00006723  00000-0  46957-3 0  9999","GP_ID":"230393257","APOAPSIS":"548.373","LAUNCH_DATE":"2021-04-29","MEAN_MOTION_DDOT":"0.0000000000000","MEAN_MOTION_DOT":"0.00006723","TLE_LINE2":"2 48314  53.0524 147.0702 0001746  86.3709 273.7480 15.06416109109175","EPHEMERIS_TYPE":"0","RCS_SIZE":"LARGE","PERIAPSIS":"545.955","MEAN_MOTION":"15.06416109","SITE":"AFETR"}];
